satname,norad_id,inclination_deg,eccentricity,mean_motion_rev_per_day,perigee_km,apogee_km,l1,l2
STARLINK-1297,45395,53.0521,0.000288,15.47513608,422.04331534486846,425.9613475997967,1 45395U 20019AM  26034.59579370  .00142809  00000+0  26922-2 0  9994,2 45395  53.0521 294.4770 0002880 103.6088 256.5240 15.47513608324127
STARLINK-1307,45397,53.0564,0.0001489,15.45735149,428.2052231797197,430.2324537484137,1 45397U 20019AP  26034.09134548  .00021580  00000+0  44680-3 0  9999,2 45397  53.0564 296.4023 0001489 119.6572 240.4583 15.45735149324696
STARLINK-1255,45399,53.0434,0.0007267,15.45418944,425.19978596232613,435.0949464601763,1 45399U 20019AR  26034.61354936  .00118564  00000+0  24095-2 0  9990,2 45399  53.0434 265.9348 0007267 122.5670 237.6039 15.45418944325154
STARLINK-1260,45404,53.1544,0.0001463,15.29370216,476.69076697483524,478.6967830596059,1 45404U 20019AW  26034.14463024  .00009749  00000+0  34958-3 0  9998,2 45404  53.1544 289.6826 0001463  81.0890 279.0276 15.29370216324684
STARLINK-1263,45405,53.155,0.0001509,15.29366315,476.6708866362933,478.73997988265,1 45405U 20019AX  26033.15146453  .00003737  00000+0  14173-3 0  9991,2 45405  53.1550 294.3056 0001509  96.0518 264.0655 15.29366315324538
STARLINK-1265,45406,53.1561,0.0001502,15.2932959,476.78542530948744,478.8449533471621,1 45406U 20019AY  26034.08069156  .00005678  00000+0  20913-3 0  9994,2 45406  53.1561 290.0657 0001502  97.0707 263.0465 15.29329590324672
STARLINK-1278,45408,53.0488,0.0005803,15.49019131,415.6494693474724,423.5389161697876,1 45408U 20019BA  26034.66668981  .00154126  00000+0  27513-2 0  9996,2 45408  53.0488 294.2416 0005803  84.0772 317.0511 15.49019131  5909
STARLINK-1296,45412,53.1536,0.0002514,15.29797073,474.6951656369147,478.14163609247043,1 45412U 20019BE  26034.40378792  .00502257  00000+0  16052-1 0  9998,2 45412  53.1536 288.4954 0002514   9.3170 350.7877 15.29797073324728
STARLINK-1298,45413,53.0407,0.0006305,15.79350795,328.04800225219515,336.509836726671,1 45413U 20019BF  26034.66668981  .00201290  00000+0  10705-2 0  9992,2 45413  53.0407 226.5277 0006305 184.4345 103.7412 15.79350795  5983
STARLINK-1309,45414,53.0701,0.0001672,15.41485095,440.585263533133,442.86582556803114,1 45414U 20019BG  26034.66668981  .01601586  00000+0  34286-1 0  9995,2 45414  53.0701 287.0599 0001672  81.0974 255.1001 15.41485095  5743
STARLINK-1316,45415,53.1597,0.0001472,15.3012392,474.43339313395427,476.4510868622101,1 45415U 20019BH  26034.18839930  .00035955  00000+0  12231-2 0  9994,2 45415  53.1597 289.5557 0001472 100.9473 259.1694 15.30123920324719
STARLINK-1318,45416,53.037,0.0004648,15.8777166,305.4238076849897,311.63973497481766,1 45416U 20019BJ  26034.66668981  .00328272  00000+0  11545-2 0  9998,2 45416  53.0370 213.1494 0004648 241.6131  20.4618 15.87771660  6009
STARLINK-1286,45417,53.0509,0.0002274,15.48264499,420.256539573742,423.3491522156546,1 45417U 20019BK  26034.09924136  .00033282  00000+0  62627-3 0  9995,2 45417  53.0509 296.5877 0002274  70.8203 289.3050 15.48264499324866
STARLINK-1308,45419,53.0569,0.0002176,15.42282475,437.89121327281646,440.85819436631937,1 45419U 20019BM  26034.16672102  .00019109  00000+0  44562-3 0  9998,2 45419  53.0569 316.8118 0002176 102.0735 258.0513 15.42282475324334
STARLINK-1329,45531,53.0527,0.0008032,15.48787931,414.8101961300745,425.7311582226903,1 45531U 20025A   26034.00953260  .00104283  00000+0  18903-2 0  9997,2 45531  53.0527 248.4058 0008032 129.5492 230.6227 15.48787931320064
STARLINK-1338,45532,53.0512,0.0005207,15.47538939,420.38626843950624,427.46993903854127,1 45532U 20025B   26033.97741088  .00110317  00000+0  20878-2 0  9995,2 45532  53.0512 251.6184 0005207 140.9219 219.2165 15.47538939320010
STARLINK-1350,45535,53.0718,0.000137,15.35144517,459.5543810891204,461.42816523596684,1 45535U 20025E   26034.42678753  .00013833  00000+0  41001-3 0  9994,2 45535  53.0718 193.9372 0001370 113.4603 246.6543 15.35144517320899
STARLINK-1362,45538,53.1112,0.000151,15.19699541,505.7083179587762,507.78755320932305,1 45538U 20025H   26034.66668981  .01458255  00000+0  61682-1 0  9992,2 45538  53.1112 258.7569 0001510  81.9612 285.9345 15.19699541  5748
STARLINK-1368,45540,53.1059,0.0001402,15.1878461,508.5470251397646,510.4783221082489,1 45540U 20025K   26034.66668981  .00046408  00000+0  22053-2 0  9997,2 45540  53.1059 258.8978 0001402  93.1776 327.2752 15.18784610  5745
STARLINK-1371,45542,53.0521,0.0004816,15.42405333,435.72953390216026,442.29581246737234,1 45542U 20025M   26034.58149322  .00092070  00000+0  20820-2 0  9999,2 45542  53.0521 251.7297 0004816 137.1633 222.9748 15.42405333320069
STARLINK-1372,45543,53.1217,0.0001645,15.219169,498.9275521529835,501.1904786420482,1 45543U 20025N   26034.66668981  .00937382  00000+0  37551-1 0  9998,2 45543  53.1217 258.9212 0001645 100.2195 266.2099 15.21916900  5794
STARLINK-1373,45544,53.0516,0.000339,15.43937811,432.19140923288523,436.81037772466425,1 45544U 20025P   26034.33797427  .00086845  00000+0  18673-2 0  9995,2 45544  53.0516 253.1725 0003390 160.9432 199.1701 15.43937811320026
STARLINK-1294,45551,53.035,0.000693,15.85623881,309.93057055511053,319.2066605382588,1 45551U 20025W   26034.66668981  .00323145  00000+0  12619-2 0  9992,2 45551  53.0350 149.0161 0006930 331.9467  93.2943 15.85623881  5991
STARLINK-1327,45555,53.0509,0.0002273,15.4683985,424.4308209599976,427.52397136449326,1 45555U 20025AA  26033.97401525  .00110146  00000+0  21364-2 0  9990,2 45555  53.0509 233.3380 0002273 163.6376 196.4705 15.46839850320260
STARLINK-1356,45564,53.0517,0.0001244,15.39891044,445.5822405779918,447.28019315034817,1 45564U 20025AK  26034.26540958  .00089223  00000+0  21948-2 0  9996,2 45564  53.0517 237.2125 0001244 137.3743 222.7357 15.39891044320230
STARLINK-1357,45565,53.0563,0.0003204,15.48431928,419.13411701247605,423.491204355043,1 45565U 20025AL  26034.66668981  .00092588  00000+0  17043-2 0  9997,2 45565  53.0563 201.7344 0003204 159.2747 304.2319 15.48431928  5905
STARLINK-1361,45567,53.0525,7.36e-05,15.40508761,444.10458619101337,445.10889406955994,1 45567U 20025AN  26034.58629055  .00091859  00000+0  22130-2 0  9992,2 45567  53.0525 236.1721 0000736 153.7026 206.4016 15.40508761320282
STARLINK-1363,45568,53.0462,0.000239,15.67251942,365.1579305466821,368.38199607514525,1 45568U 20025AP  26034.66668981  .00148152  00000+0  13334-2 0  9998,2 45568  53.0462 206.5560 0002390 311.5697 258.1781 15.67251942  5931
STARLINK-1366,45569,53.0467,0.0002231,15.67005093,365.9733443068126,368.98323784969125,1 45569U 20025AQ  26034.66668981  .00145069  00000+0  13194-2 0  9997,2 45569  53.0467 207.2003 0002231 296.8103 250.4690 15.67005093  5880
STARLINK-1376,45570,53.1604,0.0001621,15.2936191,476.60726358630563,478.8299319711059,1 45570U 20025AR  26034.27952226  .00003524  00000+0  13438-3 0  9995,2 45570  53.1604 237.4304 0001621  84.6046 275.5139 15.29361910320232
STARLINK-1320,45572,53.0513,0.0005879,15.6122996,380.1276314271299,388.0786733983359,1 45572U 20025AT  26034.51807604  .00137255  00000+0  15687-2 0  9999,2 45572  53.0513 153.4758 0005879 275.9573  84.0770 15.61229960321454
STARLINK-1321,45573,53.0521,0.0003357,15.41946721,438.07535802130315,442.653299813539,1 45573U 20025AU  26034.54616588  .00029755  00000+0  69535-3 0  9999,2 45573  53.0521 221.1742 0003357 140.3352 219.7899 15.41946721320186
STARLINK-1331,45578,53.0546,0.0001406,15.36358821,455.926393628969,457.8484024897025,1 45578U 20025AZ  26034.66668981  .00637541  00000+0  16496-1 0  9995,2 45578  53.0546 227.1999 0001406  84.7846 215.5552 15.36358821  5799
STARLINK-1333,45580,53.1597,0.0001651,15.30195492,474.097038878871,476.36002017672126,1 45580U 20025BB  26033.94590627  .00001963  00000+0  78387-4 0  9992,2 45580  53.1597 239.1904 0001651  78.0533 282.0653 15.30195492320180
STARLINK-1335,45581,53.0546,0.0001939,15.06395767,545.8817039030346,548.5673591049508,1 45581U 20025BC  26034.56117174 -.00000237  00000+0  30298-5 0  9998,2 45581  53.0546 229.8259 0001939  94.1606 265.9604 15.06395767320368
STARLINK-1337,45582,53.0537,0.0001255,15.46303401,426.6968628337927,428.40509051593835,1 45582U 20025BD  26034.66668981  .01378680  00000+0  25067-1 0  9991,2 45582  53.0537 226.1945 0001255  75.8536 198.0600 15.46303401  5797
STARLINK-1347,45586,53.0486,0.0003207,15.4713303,422.935983760447,427.29959138119557,1 45586U 20025BH  26034.66668981  .00082727  00000+0  15960-2 0  9990,2 45586  53.0486 192.9261 0003207 212.3885 228.7567 15.47133030  5905
STARLINK-1364,45589,53.0533,7.77e-05,15.43148479,436.29431653988104,437.3533614542621,1 45589U 20025BL  26034.24149439  .00127539  00000+0  27973-2 0  9997,2 45589  53.0533 227.6076 0000777 134.4125 225.6944 15.43148479320365
STARLINK-1365,45590,53.0537,0.0003006,15.42140042,437.74500686385545,441.8439472678683,1 45590U 20025BM  26034.21931979  .00037274  00000+0  86227-3 0  9998,2 45590  53.0537 257.3048 0003006 169.4580 190.6488 15.42140042319966
STARLINK-1443,45660,53.0548,0.0001506,15.06397373,546.1766506212562,548.2625680319861,1 45660U 20035D   26033.92442707  .00000715  00000+0  66875-4 0  9998,2 45660  53.0548 222.6846 0001506  93.5745 266.5417 15.06397373313498
STARLINK-1446,45663,53.0252,0.0003665,15.4132923,439.6856554188689,444.68495166736557,1 45663U 20035G   26034.52706352  .00021796  00000+0  52299-3 0  9993,2 45663  53.0252 161.4627 0003665 149.8634 210.2581 15.41329230314406
STARLINK-1448,45665,53.0534,9.73e-05,15.45291753,429.85846615633,431.1834309931228,1 45665U 20035J   26034.66668981  .00079420  00000+0  16334-2 0  9991,2 45665  53.0534 215.6919 0000973  14.4529 110.2204 15.45291753  5709
STARLINK-1451,45668,53.0512,0.0003306,15.08153528,539.5547098907482,544.1302003064602,1 45668U 20035M   26034.50780598  .00022781  00000+0  14718-2 0  9998,2 45668  53.0512 220.1638 0003306 142.0907 218.0316 15.08153528313583
